88P/Howell,e,4.3826,56.6755,235.9280,3.105720,0.1800780,0.56392970,116.7923,07/07.0/2022,2000,g 11.0,6.0
# From MPC100283
89P/Russell,e,12.0707,41.3528,250.3941,3.753697,0.1355237,0.40829563,274.8305,07/07.0/2022,2000,g 11.5,6.0
# From MPEC 2022-K19
90P/Gehrels,e,9.6511,13.2053,29.0495,6.051193,0.0662129,0.51078608,121.9792,07/07.0/2022,2000,g  8.5,6.0
# From MPEC 2021-S45
91P/Russell,e,14.0947,247.2806,355.5887,3.903982,0.1277739,0.33319982,77.0394,07/07.0/2022,2000,g  7.5,6.0
# From MPEC 2014-J58
92P/Sanguin,e,19.5080,181.3617,163.7931,5.343294,0.0797977,0.66106827,213.7971,07/07.0/2022,2000,g 12.0,6.0
# From NK 2707
93P/Lovas,e,12.2034,339.6440,74.8163,4.380818,0.1074908,0.61329446,209.9235,07/07.0/2022,2000,g  9.0,4.0
# From MPEC 2021-Y10
94P/Russell,e,6.1880,70.8580,92.4377,3.508229,0.1499934,0.36520282,312.2776,07/07.0/2022,2000,g  9.0,6.0
# From MPC 75717
95P/Chiron,e,6.9214,209.2980,339.5484,13.71084,0.0194137,0.37630461,188.1715,07/07.0/2022,2000,g  6.5,2.0
# From MPEC 2017-T14
96P/Machholz,e,57.5067,93.9574,14.7489,3.029892,0.1868802,0.96157575,321.1120,07/07.0/2022,2000,g  9.0,4.0
# From MPEC 2022-C56
97P/Metcalf-Brewington,e,17.9520,184.0770,229.9777,4.759837,0.0949109,0.46001006,13.4230,07/07.0/2022,2000,g  5.5,6.0
# From MPEC 2021-W31
98P/Takamizawa,e,10.5605,114.6868,157.8276,3.794983,0.1333182,0.56222881,73.0964,07/07.0/2022,2000,g  9.0,8.0
# From MPEC 2022-M88
99P/Kowal,e,4.3398,28.1014,174.9118,6.104414,0.0653489,0.22906891,5.5913,07/07.0/2022,2000,g  4.5,6.0
# From MPEC 2022-M88
100P/Hartley,e,25.5660,37.6872,181.9747,3.432222,0.1550033,0.41215093,354.5812,07/07.0/2022,2000,g  9.0,8.0
# From MPEC 2022-K19
101P/Chernykh,e,5.0517,116.2173,277.7336,5.806817,0.0704364,0.59629962,63.8207,07/07.0/2022,2000,g 10.0,4.8
# From MPEC 2022-C56
102P/Shoemaker,e,25.8843,339.3660,20.6087,3.815136,0.1322632,0.45718403,70.1549,07/07.0/2022,2000,g  6.5,8.0
# From MPEC 2018-HA5
103P/Hartley,e,13.6090,219.7458,181.2881,3.475372,0.1521255,0.69364105,289.6324,07/07.0/2022,2000,g  8.5,8.0
# From MPEC 2022-N37
104P/Kowal,e,5.7019,207.2077,227.2524,3.208017,0.1715335,0.66551981,30.2539,07/07.0/2022,2000,g 16.0,4.0
# From MPC109147
105P/Singer Brewster,e,9.1686,192.3980,46.4651,3.468716,0.1525636,0.40897518,217.9434,07/07.0/2022,2000,g 11.5,6.0
# From MPEC 2022-GA9
106P/Schuster,e,19.5362,48.8775,353.6940,3.764207,0.1349565,0.59387104,43.4814,07/07.0/2022,2000,g 14.0,4.8
# From MPEC 2015-M77
107P/Wilson-Harrington,e,2.7993,266.7788,95.4399,2.625020,0.2317422,0.63175926,348.7227,07/07.0/2022,2000,g  9.0,4.0
# From MPEC 2022-GA9
108P/Ciffreo,e,11.4361,50.2842,354.4468,3.739603,0.1362906,0.55600439,40.8680,07/07.0/2022,2000,g  8.0,12.0
# From  105, 420
109P/Swift-Tuttle,e,113.8908,139.1141,152.9976,26.17892,0.0073583,0.96263294,79.4796,07/07.0/2022,2000,g  4.0,6.0
# From MPEC 2022-M88
110P/Hartley,e,11.7052,287.5314,167.4489,3.603349,0.1440935,0.31851509,37.7065,07/07.0/2022,2000,g  1.0,12.0
# From MPC 75718
111P/Helin-Roman-Crockett,e,4.2260,89.7600,1.0062,4.149689,0.1165952,0.10656725,45.0349,07/07.0/2022,2000,g  5.0,8.0
# From MPEC 2021-S45
112P/Urata-Niijima,e,24.2083,31.8323,21.4672,3.524840,0.1489344,0.59030520,131.0175,07/07.0/2022,2000,g 14.0,6.0
# From MPEC 2022-D36
113P/Spitaler,e,5.2901,306.6768,115.5170,3.690766,0.1390047,0.41971653,4.9436,07/07.0/2022,2000,g 13.5,4.0
# From MPEC 2022-K19
114P/Wiseman-Skiff,e,18.2813,271.0331,172.7455,3.543670,0.1477489,0.55511631,133.6868,07/07.0/2022,2000,g 11.5,6.0
# From MPEC 2021-UA9
115P/Maury,e,11.6772,176.0062,120.9973,4.271956,0.1116256,0.51825803,78.9817,07/07.0/2022,2000,g 10.5,6.0
# From MPEC 2022-N37
116P/Wild,e,3.6034,20.9802,173.2912,3.490405,0.1511438,0.37055513,358.5010,07/07.0/2022,2000,g  2.5,10.0
# From MPEC 2022-N37
117P/Helin-Roman-Alu,e,8.7040,58.8417,222.9496,4.082688,0.1194771,0.25548760,359.9022,07/07.0/2022,2000,g  2.5,8.0
# From MPEC 2021-TD0
118P/Shoemaker-Levy,e,10.0944,142.0878,314.8357,3.347011,0.1609601,0.45350451,337.3872,07/07.0/2022,2000,g 12.0,4.0
# From MPEC 2021-UA9
119P/Parker-Hartley,e,7.3934,104.5712,322.0537,3.804096,0.1328394,0.38818158,355.2226,07/07.0/2022,2000,g  3.5,8.0
# From MPEC 2022-CN4
120P/Mueller,e,8.4900,358.6711,36.6244,3.964093,0.1248787,0.37480603,53.1515,07/07.0/2022,2000,g 12.0,4.0
# From MPEC 2021-Y10
121P/Shoemaker-Holt,e,20.1649,94.1154,11.5529,4.583626,0.1004362,0.18604265,324.2377,07/07.0/2022,2000,g  6.5,8.0
# From MPC 75718
122P/de Vico,e,85.3525,79.6258,12.9936,17.62362,0.0133218,0.96228614,130.5363,07/07.0/2022,2000,g  7.5,5.2
# From MPEC 2021-F20
123P/West-Hartley,e,15.2842,45.9464,104.1007,3.879021,0.1290093,0.44487124,161.3809,07/07.0/2022,2000,g 12.2,4.0
# From MPEC 2022-K19
124P/Mrkos,e,31.7411,0.0974,184.9694,3.345956,0.1610363,0.49786726,129.2657,07/07.0/2022,2000,g 13.5,2.8
# From MPEC 2015-M77
125P/Spacewatch,e,9.9866,153.1465,87.2121,3.127178,0.1782277,0.51219889,251.3974,07/07.0/2022,2000,g  9.0,4.0
# From MPC 66205
126P/IRAS,e,45.8763,357.8729,356.5763,5.635524,0.0736720,0.69639645,333.2350,07/07.0/2022,2000,g  9.0,4.0
# From MPC 84321
127P/Holt-Olmstead,e,14.3005,13.6043,6.2950,3.455160,0.1534624,0.36004374,354.7059,07/07.0/2022,2000,g 11.0,6.0
# From MPC 89014
128P/Shoemaker-Holt,e,4.3697,214.3171,210.2588,4.489634,0.1036067,0.32149850,207.6029,07/07.0/2022,2000,g  8.5,4.0
# From MPEC 2022-K19
129P/Shoemaker-Levy,e,3.4423,184.8648,307.4963,4.286851,0.1110443,0.08456505,343.7362,07/07.0/2022,2000,g 11.0,4.0
# From MPEC 2022-ED3
130P/McNaught-Hughes,e,6.0625,70.1940,246.0795,3.383340,0.1583747,0.46126887,257.4267,07/07.0/2022,2000,g 10.0,6.0
# From MPC102101
131P/Mueller,e,7.3597,214.1465,179.0423,3.679345,0.1396524,0.34449191,175.7927,07/07.0/2022,2000,g 11.0,4.0
# From MPEC 2022-GA9
132P/Helin-Roman-Alu,e,5.3827,173.9953,216.3653,3.886424,0.1286408,0.56466263,30.3411,07/07.0/2022,2000,g 11.0,6.0
# From MPC 94676
133P/Elst-Pizarro,e,1.3897,160.0982,131.8990,3.165454,0.1750048,0.15656536,242.2155,07/07.0/2022,2000,g 15.4,2.0
# From MPC 89012
134P/Kowal-Vavrova,e,4.3353,202.0549,18.8694,6.263431,0.0628761,0.58523264,187.0639,07/07.0/2022,2000,g 11.5,4.0
# From MPEC 2022-L66
135P/Shoemaker-Levy,e,6.0633,213.0259,22.3243,3.800544,0.1330257,0.29480981,12.0572,07/07.0/2022,2000,g  7.0,8.0
# From MPEC 2022-K19
136P/Mueller,e,9.4243,137.4428,225.0209,4.190811,0.1148833,0.29331950,255.4013,07/07.0/2022,2000,g 11.0,4.0
# From MPEC 2022-K19
137P/Shoemaker-Levy,e,4.8563,232.9747,141.1098,4.521032,0.1025292,0.57383443,133.3453,07/07.0/2022,2000,g 11.0,4.0
# From MPEC 2016-U66
138P/Shoemaker-Levy,e,10.0903,309.3066,95.5556,3.620879,0.1430484,0.53110144,166.0058,07/07.0/2022,2000,g 15.0,6.0
# From MPEC 2020-HN5
139P/Vaisala-Oterma,e,2.3358,242.1451,165.7275,4.519857,0.1025692,0.24755822,171.1930,07/07.0/2022,2000,g  9.5,4.0
# From MPEC 2015-E14
140P/Bowell-Skiff,e,3.8438,343.2312,172.7805,6.420384,0.0605846,0.69271946,153.2317,07/07.0/2022,2000,g 11.5,6.0
# From MPEC 2022-K19
141P/Machholz,e,13.9496,241.8117,153.5785,3.057494,0.1843553,0.73594768,104.6411,07/07.0/2022,2000,g 12.0,12.0
# From MPEC 2021-Y10
142P/Ge-Wang,e,12.2514,175.9317,173.9860,4.999118,0.0881788,0.49719543,37.0607,07/07.0/2022,2000,g  8.5,6.0
# From MPEC 2021-W31
143P/Kowal-Mrkos,e,4.7068,245.0846,320.3231,4.276385,0.1114523,0.41197722,169.8873,07/07.0/2022,2000,g 13.5,2.0
# From MPC104795
144P/Kushida,e,3.9309,243.0406,216.3532,3.826077,0.1316963,0.63521450,285.2402,07/07.0/2022,2000,g  8.5,8.0
# From MPC108598
145P/Shoemaker-Levy,e,11.2789,26.7943,10.2496,4.136648,0.1171470,0.54212555,207.1512,07/07.0/2022,2000,g 13.5,4.0
# From MPC100284
146P/Shoemaker-LINEAR,e,23.1131,53.3786,316.9998,4.030411,0.1218092,0.64742218,267.3742,07/07.0/2022,2000,g 15.0,4.0
# From MPC 75720
147P/Kushida-Muramatsu,e,2.3087,92.0426,348.1174,4.035747,0.1215677,0.21924472,297.2483,07/07.0/2022,2000,g 14.0,4.0
# From MPEC 2022-CN4
148P/Anderson-LINEAR,e,3.6581,89.2111,8.0305,3.617594,0.1432433,0.54979030,3.3403,07/07.0/2022,2000,g 16.0,2.0
# From MPC 75720
149P/Mueller,e,34.3871,144.0586,31.0487,4.131302,0.1173745,0.32298509,167.3669,07/07.0/2022,2000,g  8.0,8.0
# From MPEC 2021-W31
150P/LONEOS,e,18.5128,272.2200,245.7527,3.877521,0.1290841,0.54843079,280.6762,07/07.0/2022,2000,g 13.5,4.0
# From MPEC 2022-K19
151P/Helin,e,4.7286,143.1572,216.0834,5.762949,0.0712421,0.57382713,175.1988,07/07.0/2022,2000,g 10.0,6.0
# From MPEC 2022-N37
152P/Helin-Lawrence,e,9.8805,91.8580,163.9711,4.476372,0.1040674,0.30858068,18.1274,07/07.0/2022,2000,g 11.5,4.0
# From MPC 46101
153P/Ikeya-Zhang,e,28.0234,93.3492,34.8506,50.43704,0.0027516,0.98969086,0.0000,03/02.9959/2002,2000,g  9.0,4.0
# From MPEC 2022-K19
154P/Brewington,e,17.6323,343.0377,47.8782,4.799096,0.0937486,0.67600514,293.8600,07/07.0/2022,2000,g  2.5,12.0
# From MPEC 2021-F20
155P/Shoemaker,e,6.3990,97.1787,14.5720,6.571559,0.0585061,0.72632314,56.4625,07/07.0/2022,2000,g 13.8,4.0
# From MPEC 2022-GA9
156P/Russell-LINEAR,e,17.2669,35.3472,0.4592,3.461752,0.1530242,0.61505521,91.2001,07/07.0/2022,2000,g 15.5,2.0
# From MPEC 2021-W31
157P/Tritton,e,12.4208,287.5481,155.0553,3.544063,0.1477243,0.55645257,350.4215,07/07.0/2022,2000,g 10.0,4.0
# From MPEC 2022-L66
158P/Kowal-LINEAR,e,7.7533,134.7657,182.7956,5.216282,0.0827299,0.07831420,26.1417,07/07.0/2022,2000,g  9.0,4.0
# From MPEC 2021-N06
159P/LONEOS,e,23.4766,54.9545,4.5583,5.852723,0.0696093,0.38227758,104.8569,07/07.0/2022,2000,g 10.0,4.0
# From MPEC 2022-K19
160P/LINEAR,e,15.6156,333.3604,12.7550,3.776005,0.1343245,0.52626005,127.2569,07/07.0/2022,2000,g 15.5,2.0
# From MPC 75721
161P/Hartley-IRAS,e,95.8022,1.5838,47.0007,7.719966,0.0459495,0.83521343,286.2291,07/07.0/2022,2000,g  8.5,6.0
# From MPEC 2022-M21
162P/SidingSpring,e,27.5608,30.8919,357.1704,3.091838,0.1812922,0.58310745,104.4348,07/07.0/2022,2000,g 12.0,4.0
# From MPEC 2021-S45
163P/NEAT,e,12.7122,102.0735,349.5632,3.765698,0.1348764,0.45225168,143.8947,07/07.0/2022,2000,g 14.5,4.0
# From MPEC 2021-F20
